{"type": "FeatureCollection", "features": [ {"type": "Feature", "properties": {"norad_id": 33825, "name": "COSMOS 2251 DEB", "group": "cosmos-2251-debris", "lat": -46.94987122587658, "lon": 16.22029916280198, "alt_km": 631.0582369335889, "timestamp": "2025-12-09T11:33:55.193858+00:00", "meta": {"OBJECT_NAME": "COSMOS 2251 DEB", "OBJECT_ID": "1993-036BS", "EPOCH": "2025-12-08T13:29:10.217184", "MEAN_MOTION": 14.69708612, "ECCENTRICITY": 0.008433, "INCLINATION": 73.9851, "RA_OF_ASC_NODE": 35.9146, "ARG_OF_PERICENTER": 3.9987, "MEAN_ANOMALY": 121.8448, "EPHEMERIS_TYPE": 0, "CLASSIFICATION_TYPE": "U", "NORAD_CAT_ID": 33825, "ELEMENT_SET_NO": 999, "REV_AT_EPOCH": 88818, "BSTAR": 0.0011359, "MEAN_MOTION_DOT": 7.121e-05, "MEAN_MOTION_DDOT": 0}, "tle": {"line1": "1 33825U 93036BS  25342.56192381  .00007121  00000+0  11359-2 0  9994", "line2": "2 33825  73.9851  35.9146 0084330   3.9987 121.8448 14.69708612888183"}}, "geometry": {"type": "Point", "coordinates": [16.22029916280198, -46.94987122587658]}}, {"type": "Feature", "properties": {"norad_id": 33826, "name": "COSMOS 2251 DEB", "group": "cosmos-2251-debris", "lat": 49.105243373860546, "lon": 75.26322641376494, "alt_km": 676.591870504807, "timestamp": "2025-12-09T11:33:55.193869+00:00", "meta": {"OBJECT_NAME": "COSMOS 2251 DEB", "OBJECT_ID": "1993-036BT", "EPOCH": "2025-12-09T04:51:56.457792", "MEAN_MOTION": 14.51669121, "ECCENTRICITY": 0.0083599, "INCLINATION": 74.0648, "RA_OF_ASC_NODE": 56.5255, "ARG_OF_PERICENTER": 102.0194, "MEAN_ANOMALY": 292.3449, "EPHEMERIS_TYPE": 0, "CLASSIFICATION_TYPE": "U", "NORAD_CAT_ID": 33826, "ELEMENT_SET_NO": 999, "REV_AT_EPOCH": 87718, "BSTAR": 0.0013125, "MEAN_MOTION_DOT": 5.486e-05, "MEAN_MOTION_DDOT": 0}, "tle": {"line1": "1 33826U 93036BT  25343.20273678  .00005486  00000+0  13125-2 0  9991", "line2": "2 33826  74.0648  56.5255 0083599 102.0194 292.3449 14.51669121877182"}}, "geometry": {"type": "Point", "coordinates": [75.26322641376494, 49.105243373860546]}}, {"type": "Feature", "properties": {"norad_id": 33828, "name": "COSMOS 2251 DEB", "group": "cosmos-2251-debris", "lat": 34.23828972941874, "lon": -104.62593668371163, "alt_km": 737.4320381938605, "timestamp": "2025-12-09T11:33:55.193881+00:00", "meta": {"OBJECT_NAME": "COSMOS 2251 DEB", "OBJECT_ID": "1993-036BV", "EPOCH": "2025-12-09T03:38:24.497088", "MEAN_MOTION": 14.44313831, "ECCENTRICITY": 0.002942, "INCLINATION": 74.047, "RA_OF_ASC_NODE": 244.7621, "ARG_OF_PERICENTER": 318.2203, "MEAN_ANOMALY": 161.0807, "EPHEMERIS_TYPE": 0, "CLASSIFICATION_TYPE": "U", "NORAD_CAT_ID": 33828, "ELEMENT_SET_NO": 999, "REV_AT_EPOCH": 88261, "BSTAR": 0.00065869, "MEAN_MOTION_DOT": 2.252e-05, "MEAN_MOTION_DDOT": 0}, "tle": {"line1": "1 33828U 93036BV  25343.15167242  .00002252  00000+0  65869-3 0  9997", "line2": "2 33828  74.0470 244.7621 0029420 318.2203 161.0807 14.44313831882610"}}, "geometry": {"type": "Point", "coordinates": [-104.62593668371163, 34.23828972941874]}}, {"type": "Feature", "properties": {"norad_id": 33830, "name": "COSMOS 2251 DEB", "group": "cosmos-2251-debris", "lat": -63.69411693886548, "lon": 92.14732894367745, "alt_km": 655.5930874554415, "timestamp": "2025-12-09T11:33:55.193891+00:00", "meta": {"OBJECT_NAME": "COSMOS 2251 DEB", "OBJECT_ID": "1993-036BX", "EPOCH": "2025-12-09T04:38:34.797120", "MEAN_MOTION": 14.76825988, "ECCENTRICITY": 0.0042281, "INCLINATION": 74.0321, "RA_OF_ASC_NODE": 237.3184, "ARG_OF_PERICENTER": 358.1021, "MEAN_ANOMALY": 158.3088, "EPHEMERIS_TYPE": 0, "CLASSIFICATION_TYPE": "U", "NORAD_CAT_ID": 33830, "ELEMENT_SET_NO": 999, "REV_AT_EPOCH": 89419, "BSTAR": 0.0010986, "MEAN_MOTION_DOT": 7.801e-05, "MEAN_MOTION_DDOT": 0}, "tle": {"line1": "1 33830U 93036BX  25343.19345830  .00007801  00000+0  10986-2 0  9999", "line2": "2 33830  74.0321 237.3184 0042281 358.1021 158.3088 14.76825988894193"}}, "geometry": {"type": "Point", "coordinates": [92.14732894367745, -63.69411693886548]}}, {"type": "Feature", "properties": {"norad_id": 33832, "name": "COSMOS 2251 DEB", "group": "cosmos-2251-debris", "lat": 47.723178327742765, "lon": 17.861001991926013, "alt_km": 695.1234000738914, "timestamp": "2025-12-09T11:33:55.193902+00:00", "meta": {"OBJECT_NAME": "COSMOS 2251 DEB", "OBJECT_ID": "1993-036BZ", "EPOCH": "2025-12-09T03:29:29.707008", "MEAN_MOTION": 14.60573925, "ECCENTRICITY": 0.0025165, "INCLINATION": 74.0535, "RA_OF_ASC_NODE": 216.8321, "ARG_OF_PERICENTER": 248.6945, "MEAN_ANOMALY": 273.0571, "EPHEMERIS_TYPE": 0, "CLASSIFICATION_TYPE": "U", "NORAD_CAT_ID": 33832, "ELEMENT_SET_NO": 999, "REV_AT_EPOCH": 88372, "BSTAR": 0.0015221, "MEAN_MOTION_DOT": 7.408e-05, "MEAN_MOTION_DDOT": 0}, "tle": {"line1": "1 33832U 93036BZ  25343.14548272  .00007408  00000+0  15221-2 0  9991", "line2": "2 33832  74.0535 216.8321 0025165 248.6945 273.0571 14.60573925883720"}}, "geometry": {"type": "Point", "coordinates": [17.861001991926013, 47.723178327742765]}}, {"type": "Feature", "properties": {"norad_id": 33835, "name": "COSMOS 2251 DEB", "group": "cosmos-2251-debris", "lat": -50.53894395943215, "lon": 87.02203601286776, "alt_km": 724.4282053758716, "timestamp": "2025-12-09T11:33:55.193912+00:00", "meta": {"OBJECT_NAME": "COSMOS 2251 DEB", "OBJECT_ID": "1993-036CC", "EPOCH": "2025-12-09T02:46:17.451264", "MEAN_MOTION": 14.62184294, "ECCENTRICITY": 0.0055068, "INCLINATION": 74.0576, "RA_OF_ASC_NODE": 108.0411, "ARG_OF_PERICENTER": 162.5817, "MEAN_ANOMALY": 15.7785, "EPHEMERIS_TYPE": 0, "CLASSIFICATION_TYPE": "U", "NORAD_CAT_ID": 33835, "ELEMENT_SET_NO": 999, "REV_AT_EPOCH": 88736, "BSTAR": 0.001489, "MEAN_MOTION_DOT": 7.638e-05, "MEAN_MOTION_DDOT": 0}, "tle": {"line1": "1 33835U 93036CC  25343.11547976  .00007638  00000+0  14890-2 0  9997", "line2": "2 33835  74.0576 108.0411 0055068 162.5817  15.7785 14.62184294887368"}}, "geometry": {"type": "Point", "coordinates": [87.02203601286776, -50.53894395943215]}}, {"type": "Feature", "properties": {"norad_id": 33836, "name": "COSMOS 2251 DEB", "group": "cosmos-2251-debris", "lat": 50.30630783199167, "lon": 65.15053735093551, "alt_km": 610.2447872870607, "timestamp": "2025-12-09T11:33:55.193923+00:00", "meta": {"OBJECT_NAME": "COSMOS 2251 DEB", "OBJECT_ID": "1993-036CD", "EPOCH": "2025-12-09T05:03:03.305952", "MEAN_MOTION": 14.79507371, "ECCENTRICITY": 0.0022507, "INCLINATION": 73.9972, "RA_OF_ASC_NODE": 265.914, "ARG_OF_PERICENTER": 120.4204, "MEAN_ANOMALY": 1.1846, "EPHEMERIS_TYPE": 0, "CLASSIFICATION_TYPE": "U", "NORAD_CAT_ID": 33836, "ELEMENT_SET_NO": 999, "REV_AT_EPOCH": 64036, "BSTAR": 0.0015908, "MEAN_MOTION_DOT": 0.00011933, "MEAN_MOTION_DDOT": 0}, "tle": {"line1": "1 33836U 93036CD  25343.21045493  .00011933  00000+0  15908-2 0  9990", "line2": "2 33836  73.9972 265.9140 0022507 120.4204   1.1846 14.79507371640361"}}, "geometry": {"type": "Point", "coordinates": [65.15053735093551, 50.30630783199167]}}, {"type": "Feature", "properties": {"norad_id": 33837, "name": "COSMOS 2251 DEB", "group": "cosmos-2251-debris", "lat": 72.98683898021568, "lon": 131.27410700966092, "alt_km": 739.9647420657484, "timestamp": "2025-12-09T11:33:55.193933+00:00", "meta": {"OBJECT_NAME": "COSMOS 2251 DEB", "OBJECT_ID": "1993-036CE", "EPOCH": "2025-12-09T04:33:27.404928", "MEAN_MOTION": 14.50688508, "ECCENTRICITY": 0.0035822, "INCLINATION": 74.0132, "RA_OF_ASC_NODE": 62.2812, "ARG_OF_PERICENTER": 284.5896, "MEAN_ANOMALY": 75.1293, "EPHEMERIS_TYPE": 0, "CLASSIFICATION_TYPE": "U", "NORAD_CAT_ID": 33837, "ELEMENT_SET_NO": 999, "REV_AT_EPOCH": 88744, "BSTAR": 0.00041012, "MEAN_MOTION_DOT": 1.596e-05, "MEAN_MOTION_DDOT": 0}, "tle": {"line1": "1 33837U 93036CE  25343.18990052  .00001596  00000+0  41012-3 0  9997", "line2": "2 33837  74.0132  62.2812 0035822 284.5896  75.1293 14.50688508887449"}}, "geometry": {"type": "Point", "coordinates": [131.27410700966092, 72.98683898021568]}}, {"type": "Feature", "properties": {"norad_id": 33838, "name": "COSMOS 2251 DEB", "group": "cosmos-2251-debris", "lat": -15.250516408415695, "lon": 151.43876993418982, "alt_km": 727.4676133962357, "timestamp": "2025-12-09T11:33:55.193943+00:00", "meta": {"OBJECT_NAME": "COSMOS 2251 DEB", "OBJECT_ID": "1993-036CF", "EPOCH": "2025-12-08T22:55:26.841792", "MEAN_MOTION": 14.48344419, "ECCENTRICITY": 0.0027446, "INCLINATION": 74.0362, "RA_OF_ASC_NODE": 156.9009, "ARG_OF_PERICENTER": 279.3023, "MEAN_ANOMALY": 199.4378, "EPHEMERIS_TYPE": 0, "CLASSIFICATION_TYPE": "U", "NORAD_CAT_ID": 33838, "ELEMENT_SET_NO": 999, "REV_AT_EPOCH": 88514, "BSTAR": 0.00053326, "MEAN_MOTION_DOT": 1.977e-05, "MEAN_MOTION_DDOT": 0}, "tle": {"line1": "1 33838U 93036CF  25342.95517178  .00001977  00000+0  53326-3 0  9990", "line2": "2 33838  74.0362 156.9009 0027446 279.3023 199.4378 14.48344419885147"}}, "geometry": {"type": "Point", "coordinates": [151.43876993418982, -15.250516408415695]}}, {"type": "Feature", "properties": {"norad_id": 33839, "name": "COSMOS 2251 DEB", "group": "cosmos-2251-debris", "lat": 72.64741990071374, "lon": -80.92436488202232, "alt_km": 699.01305210997, "timestamp": "2025-12-09T11:33:55.193953+00:00", "meta": {"OBJECT_NAME": "COSMOS 2251 DEB", "OBJECT_ID": "1993-036CG", "EPOCH": "2025-12-09T02:02:19.681728", "MEAN_MOTION": 14.64404526, "ECCENTRICITY": 0.0085008, "INCLINATION": 74.0391, "RA_OF_ASC_NODE": 213.5026, "ARG_OF_PERICENTER": 326.4353, "MEAN_ANOMALY": 184.0944, "EPHEMERIS_TYPE": 0, "CLASSIFICATION_TYPE": "U", "NORAD_CAT_ID": 33839, "ELEMENT_SET_NO": 999, "REV_AT_EPOCH": 89526, "BSTAR": 0.00033198, "MEAN_MOTION_DOT": 1.817e-05, "MEAN_MOTION_DDOT": 0}, "tle": {"line1": "1 33839U 93036CG  25343.08495002  .00001817  00000+0  33198-3 0  9995", "line2": "2 33839  74.0391 213.5026 0085008 326.4353 184.0944 14.64404526895264"}}, "geometry": {"type": "Point", "coordinates": [-80.92436488202232, 72.64741990071374]}}]}